#dP2021  4 25  6  0  0.00000000      96 __u+U ITR00 EXT  IAC
## 2155  21600.00000000   900.00000000 59329 0.2500000000000
+  116   C06C07C08C09C10C11C12C13C14C16C19C20C21C22C23C24C25
+        C26C27C28C29C30C32C33C34C35C36C37C38C39C40C41C42C43
+        C44C45C46E01E02E03E04E05E07E08E09E11E12E13E14E15E18
+        E19E21E24E25E26E27E30E31E33E36G01G02G03G04G05G06G07
+        G08G09G10G12G13G14G15G16G17G18G19G20G21G22G23G24G25
+        G26G27G28G29G30G31G32J01J02J03R01R02R03R04R05R07R08
+        R09R11R12R13R14R15R16R17R18R19R20R21R22R24  0  0  0
++        10  9  9 10  9 10 10  9  9 11  9  9  8 10  8  9  8
++         9  8  9  8  9  8  9  9  9  9  9  9  9 10  9 10  9
++        10  9  9  9  8  9  8  7  8  9  8  8  9  9  7  8  8
++         9  8  8  9  8  9  8  8  8  8  8  8  8  8  8  8  8
++         9  8  8  8  8  8  9  8  8  8  8  8  9  8  8  8  7
++         7  8  8  8  7  8  7 10  9 11  9  9  9  9  8  8  9
++        11 11  8  8  8  9  8  9  8  9  9  8 11  8  0  0  0
%c M  cc GPS ccc cccc cccc cccc cccc ccccc ccccc ccccc ccccc
%c cc cc ccc ccc cccc cccc cccc cccc ccccc ccccc ccccc ccccc
%f  0.0000000  0.000000000  0.00000000000  0.000000000000000
%f  0.0000000  0.000000000  0.00000000000  0.000000000000000
%i    0    0    0    0      0      0      0      0         0
%i    0    0    0    0      0      0      0      0         0
/* IAC                                ULTRA-RAPID PREDICTION
/* S/V CLOCKS ARE ALIGNED TO GNSS TIME                      
/* G:C1WC2W R:C1PC2P E:C1XC5X C:C2IC6I J:C1CC2S             
/* PCV:IGS14_2148 OL/AL:FES2004  NONE     YN ORB:CoN CLK:CoN
*  2021 04 25 13 15  0.00000000
PC06 -23125.749625  35229.500719  -4450.388065    315.503635
PC07  -9428.054155  30056.911051 -27543.999200   -156.666364
PC08 -18393.811447  17765.452291  33535.847495   -890.932890
PC09 -12363.082123  35664.826019 -18930.291264    570.157758
PC10   3645.797329  37622.925754 -18015.103547    -51.503509
PC11   5078.992284  15781.075797  22499.025724    512.825292
PC12 -11453.673759  22660.321695  11594.309068    911.747178
PC13  -3169.412639  22499.779555  35617.393360    235.688918
PC14  11055.260963  25118.555848  -4847.817932    560.894186
PC16 -20086.217586  36242.798256  -8259.470129   -802.353883
PC19 -15485.346124 -18878.455134  13563.065681    811.556199
PC20  -6021.806710 -27107.243097  -2928.204565   -946.355632
PC21  -7608.672155  19437.680906  18532.219022   -948.025390
PC22 -16264.547686    492.989953  22683.267315   -963.155343
PC23  26751.539484    817.127172   7905.360231   -893.892936
PC24   5175.338520  17090.054306 -21459.973096   -826.105396
PC25  23552.201325  11883.700611  -9138.405482   -926.975133
PC26 -13934.658758  12164.943767 -20892.990389    916.030076
PC27  18078.490339 -21071.526603  -2715.193727    521.228808
PC28  22346.090461  -8680.253311  14286.120136    -82.043612
PC29 -13816.821330  -8255.050059 -22806.751671    383.626361
PC30   2902.508401 -21372.447574 -17699.806109    462.981862
PC32   7425.281788 -19536.393942 -18476.579318   -942.785552
PC33  15550.039707  18844.586204 -13452.732822   -942.163923
PC34  -2315.636379  21126.181740  18088.825242   -687.890999
PC35 -22039.634601   9145.667201 -14508.384644   -310.559161
PC36 -23029.909576 -12609.480143   9476.603603   -729.368407
PC37  15115.816639 -11365.570026  20540.392094   -905.159071
PC38 -14016.545713  21471.389284  33480.203554    144.566911
PC39 -15368.162904  37756.467109 -11041.847089     30.602643
PC40   -261.828680  36075.692668 -21680.233461    154.649101
PC41  16336.226061   -234.383008 -22569.131063   -946.794372
PC42   5469.237774  27106.712137   3723.950553   -920.503677
PC43  13458.637522   8874.782039  22767.791034   -701.506167
PC44 -17510.734141  21614.014339   2463.805957    155.651372
PC45 -26706.408732   -729.169229  -8025.751068    423.225915
PC46  -6257.779914 -16995.948739  21224.896384    300.062100
PE01  22464.636580  19278.843345    215.631165  -1094.410299
PE02 -22511.291271 -19203.609879   -344.211466    214.669065
PE03 -12118.205689 -16730.797574  21209.408696   -424.004258
PE04  17670.199164  -4882.887343 -23229.181531   -757.536281
PE05    635.417162 -28829.256853   6698.820133   -286.011469
PE07 -12900.052296  23988.397976  11587.210524   -529.982614
PE08 -17522.730584   5338.680540  23255.610009   6012.162214
PE09  12616.353319 -24203.906815 -11464.495171   5689.111545
PE11  21135.399018 -16379.943988 -12677.298258   6055.488707
PE12  28297.032375  -5544.010161   6629.150944   5242.184437
PE13 -21442.412262  16279.190406  12322.523464    415.515956
PE14 -20390.704285  -3275.674360 -24050.133478  -1409.127725
PE15 -28291.412002   5698.393908  -6601.520129    817.630080
PE18  18194.227478  -9575.131532  14563.433295  -1541.865948
PE19  10793.127449  18782.777943 -20161.430839    261.066935
PE21   9090.014407  22691.289033 -16700.400160   -661.320813
PE24  10893.068553 -12507.318689  24501.224212   -866.050750
PE25  -8905.773872 -22655.163922  16838.691407   -531.952165
PE26  -1123.476603  17222.051830  24052.570721   1883.908557
PE27 -10088.804235  13133.821734 -24533.737801    -18.753722
PE30 -23520.179458  -4964.168597 -17273.780354   2996.588538
PE31  23222.048694   4084.755620  17900.343573   -480.513944
PE33  18461.064869   8234.718885  21622.439879   -467.914136
PE36   1959.711268 -17254.490073 -23965.244962   -198.479827
PG01  -6773.390820 -13819.235990 -21943.648366    706.831007
PG02 -17570.251104  14218.317472  14639.841275   -598.786440
PG03 -11785.232516 -22856.783676  -6952.375342   -146.588625
PG04  -1471.278955 -22043.150372  14712.708193   -193.530596
PG05  -1739.688378  18512.375162  18746.521816    -40.094230
PG06 -25521.318530   6296.638947   4092.455716     10.046821
PG07 -20246.215615  -8534.419163  15611.646562    132.588234
PG08   4583.936697 -25080.097430  -6857.526553    -18.807509
PG09 -10313.519385 -13478.079624  20368.031282   -341.367724
PG10  19524.264549   5884.492949 -17043.376570   -109.162531
PG12   8118.694684  23630.893073  -9476.755793    -32.528125
PG13 -13122.627845  23007.545750    111.439498    124.219298
PG14 -19429.159813  -6973.628977 -16738.797163     93.085783
PG15  -1277.856452  25391.267512  -7382.039374   -153.757158
PG16   6668.811912 -15205.354792  20370.787210   -315.196347
PG17 -16557.555878   3713.470395 -20006.993920    432.143776
PG18  22713.236334   5953.876959  12466.368087    351.444420
PG19 -18141.493526  11598.085726 -15762.943235     -8.306611
PG20  14677.395255  21154.087915   7010.028601    522.821914
PG21   1783.836742 -15378.099256 -20807.839131    113.592964
PG22  -5260.872721 -21375.304895 -14795.642011   -629.653231
PG23  20133.326431  15147.449118  -8497.627806    111.370370
PG24   1419.637211  15875.035354 -21471.477201     34.805336
PG25  17508.294910  20039.637766   2026.566282    125.289196
PG26  13753.813335  -7763.710898  21318.309181     76.919746
PG27  12304.829698 -22902.121310   4177.720177   -119.003059
PG28 -17700.564632  -3888.595916 -18810.503137    581.325862
PG29   8785.891679  13678.484096  20945.341893   -336.143653
PG30 -26422.059726    204.506774   3802.734661   -417.638317
PG31  24824.745405  -7557.728720   6631.480521   -113.636700
PG32  17037.457519  -6241.709203 -19227.685942     21.978704
PJ01 -27174.546261  24804.460348  25573.463254   -370.062310
PJ02 -23811.701274  17221.596553 -25778.757943      6.380116
PJ03 -28177.117428  31317.876652   1970.156157     -4.077649
PR01 -11106.688607 -11417.489920  19936.621663     78.442290
PR02  -8946.249131  11249.221445  21134.789148    476.188830
PR03  -1645.424384  24005.811227   8589.499546     34.814751
PR04   6411.218687  23114.017350  -8652.145679     83.961597
PR05  10855.738003   9404.546205 -21068.888796     70.588859
PR07   1291.857080 -24202.400464  -7843.218727    -42.528567
PR08  -6564.674252 -23024.873624   8834.828545    -58.701625
PR09  17623.693471  -2194.803382  18292.487820    -10.308634
PR11 -15598.219931 -14088.076058  14469.561784     -0.572651
PR12 -23695.176627  -8928.215079  -2967.324224    223.729691
PR13 -18027.866786   1602.526077 -17993.249056    -53.917240
PR14  -1230.834607  11450.421675 -22750.872189     63.542726
PR15  15729.580832  14344.186494 -14037.798756    104.163212
PR16  24004.793394   7888.348985   3939.565962    -14.270586
PR17 -13109.433617  17044.538627  13702.629150    418.792162
PR18   1870.238911  11232.062136  22843.917769     74.353562
PR19  15484.291532    427.080412  20262.681824   -141.193762
PR20  21844.632527 -12508.005355   3971.110069    -47.964185
PR21  12307.151695 -16855.141618 -14683.306365   -204.307447
PR22  -2953.789027 -10491.559338 -23069.819564   -109.563429
PR24 -21622.283539  13144.462279  -3178.891464     40.212340
EOF
